[
    {
        "Altitude(m)": 607895.858458784,
        "Argument of Periapsis(deg)": 0.0,
        "Eccentricity": 0.0,
        "Inclination(deg)": 60.0,
        "Latitude(deg)": 40.998450846883856,
        "Longitude(deg)": 90.08863917495631,
        "Mean Anomaly(deg)": 130.9091,
        "RAAN(deg)": 40.0,
        "Satellite Name": "Test1 184",
        "Satellite Number": 184,
        "Semi-Major Axis(m)": 6980739.136638005,
        "Time(s)": 0
    },
    {
        "Altitude(m)": 607795.1712235211,
        "Argument of Periapsis(deg)": 0.00010418945913296404,
        "Eccentricity": 0.0,
        "Inclination(deg)": 60.0,
        "Latitude(deg)": 40.53077517693056,
        "Longitude(deg)": 90.58523393382407,
        "Mean Anomaly(deg)": 131.5292061454618,
        "RAAN(deg)": 39.99957995086026,
        "Satellite Name": "Test1 184",
        "Satellite Number": 184,
        "Semi-Major Axis(m)": 6980739.136638005,
        "Time(s)": 10
    }
]